[
    {
        "Altitude(m)": 707176.9025771779,
        "Argument of Periapsis(deg)": 0.0,
        "Eccentricity": 0.0,
        "Inclination(deg)": 45.0,
        "Latitude(deg)": 44.572738580418275,
        "Longitude(deg)": -76.47453025213368,
        "Mean Anomaly(deg)": -278.1818,
        "RAAN(deg)": 305.0,
        "Satellite Name": "Constellation 1 1347",
        "Satellite Number": 1347,
        "Semi-Major Axis(m)": 7083131.272910544,
        "Time(s)": 0
    },
    {
        "Altitude(m)": 707178.8396240806,
        "Argument of Periapsis(deg)": 5.994800624540561e-05,
        "Eccentricity": 0.0,
        "Inclination(deg)": 45.0,
        "Latitude(deg)": 44.58128702299582,
        "Longitude(deg)": -76.39444372402458,
        "Mean Anomaly(deg)": -278.12109885975013,
        "RAAN(deg)": 304.9999434108344,
        "Satellite Name": "Constellation 1 1347",
        "Satellite Number": 1347,
        "Semi-Major Axis(m)": 7083131.272910544,
        "Time(s)": 1
    },
    {
        "Altitude(m)": 707180.7627917972,
        "Argument of Periapsis(deg)": 0.00011989601249081122,
        "Eccentricity": 0.0,
        "Inclination(deg)": 45.0,
        "Latitude(deg)": 44.58977339342266,
        "Longitude(deg)": -76.31433262449924,
        "Mean Anomaly(deg)": -278.0603977195002,
        "RAAN(deg)": 304.9998868216689,
        "Satellite Name": "Constellation 1 1347",
        "Satellite Number": 1347,
        "Semi-Major Axis(m)": 7083131.272910544,
        "Time(s)": 2
    },
    {
        "Altitude(m)": 707182.672069089,
        "Argument of Periapsis(deg)": 0.00017984401873621686,
        "Eccentricity": 0.0,
        "Inclination(deg)": 45.0,
        "Latitude(deg)": 44.59819765558868,
        "Longitude(deg)": -76.23419711833013,
        "Mean Anomaly(deg)": -277.99969657925027,
        "RAAN(deg)": 304.9998302325033,
        "Satellite Name": "Constellation 1 1347",
        "Satellite Number": 1347,
        "Semi-Major Axis(m)": 7083131.272910544,
        "Time(s)": 3
    },
    {
        "Altitude(m)": 707184.5674447952,
        "Argument of Periapsis(deg)": 0.00023979202498162244,
        "Eccentricity": 0.0,
        "Inclination(deg)": 45.0,
        "Latitude(deg)": 44.60655977362193,
        "Longitude(deg)": -76.15403737069798,
        "Mean Anomaly(deg)": -277.9389954390004,
        "RAAN(deg)": 304.9997736433377,
        "Satellite Name": "Constellation 1 1347",
        "Satellite Number": 1347,
        "Semi-Major Axis(m)": 7083131.272910544,
        "Time(s)": 4
    },
    {
        "Altitude(m)": 707186.4489078319,
        "Argument of Periapsis(deg)": 0.00029974003122702807,
        "Eccentricity": 0.0,
        "Inclination(deg)": 45.0,
        "Latitude(deg)": 44.614859711889345,
        "Longitude(deg)": -76.07385354718987,
        "Mean Anomaly(deg)": -277.8782942987505,
        "RAAN(deg)": 304.99971705417215,
        "Satellite Name": "Constellation 1 1347",
        "Satellite Number": 1347,
        "Semi-Major Axis(m)": 7083131.272910544,
        "Time(s)": 5
    },
    {
        "Altitude(m)": 707188.3164472044,
        "Argument of Periapsis(deg)": 0.00035968803747243373,
        "Eccentricity": 0.0,
        "Inclination(deg)": 45.0,
        "Latitude(deg)": 44.6230974349974,
        "Longitude(deg)": -75.99364581379689,
        "Mean Anomaly(deg)": -277.8175931585006,
        "RAAN(deg)": 304.99966046500657,
        "Satellite Name": "Constellation 1 1347",
        "Satellite Number": 1347,
        "Semi-Major Axis(m)": 7083131.272910544,
        "Time(s)": 6
    },
    {
        "Altitude(m)": 707190.1700520009,
        "Argument of Periapsis(deg)": 0.00041963604371783933,
        "Eccentricity": 0.0,
        "Inclination(deg)": 45.0,
        "Latitude(deg)": 44.631272907792756,
        "Longitude(deg)": -75.91341450500867,
        "Mean Anomaly(deg)": -277.75689201825065,
        "RAAN(deg)": 304.99960387584105,
        "Satellite Name": "Constellation 1 1347",
        "Satellite Number": 1347,
        "Semi-Major Axis(m)": 7083131.272910544,
        "Time(s)": 7
    },
    {
        "Altitude(m)": 707192.0097113864,
        "Argument of Periapsis(deg)": 0.0004795840499632449,
        "Eccentricity": 0.0,
        "Inclination(deg)": 45.0,
        "Latitude(deg)": 44.63938609536328,
        "Longitude(deg)": -75.83315945142361,
        "Mean Anomaly(deg)": -277.6961908780008,
        "RAAN(deg)": 304.99954728667547,
        "Satellite Name": "Constellation 1 1347",
        "Satellite Number": 1347,
        "Semi-Major Axis(m)": 7083131.272910544,
        "Time(s)": 8
    },
    {
        "Altitude(m)": 707193.8354146113,
        "Argument of Periapsis(deg)": 0.0005395320562086505,
        "Eccentricity": 0.0,
        "Inclination(deg)": 45.0,
        "Latitude(deg)": 44.64743696303817,
        "Longitude(deg)": -75.75288098832729,
        "Mean Anomaly(deg)": -277.63548973775085,
        "RAAN(deg)": 304.9994906975098,
        "Satellite Name": "Constellation 1 1347",
        "Satellite Number": 1347,
        "Semi-Major Axis(m)": 7083131.272910544,
        "Time(s)": 9
    },
    {
        "Altitude(m)": 707195.6471510109,
        "Argument of Periapsis(deg)": 0.0005994800624540561,
        "Eccentricity": 0.0,
        "Inclination(deg)": 45.0,
        "Latitude(deg)": 44.65542547638909,
        "Longitude(deg)": -75.67257928330318,
        "Mean Anomaly(deg)": -277.57478859750097,
        "RAAN(deg)": 304.9994341083443,
        "Satellite Name": "Constellation 1 1347",
        "Satellite Number": 1347,
        "Semi-Major Axis(m)": 7083131.272910544,
        "Time(s)": 10
    },
    {
        "Altitude(m)": 707197.4449099968,
        "Argument of Periapsis(deg)": 0.0006594280686994618,
        "Eccentricity": 0.0,
        "Inclination(deg)": 45.0,
        "Latitude(deg)": 44.66335160123075,
        "Longitude(deg)": -75.59225450432666,
        "Mean Anomaly(deg)": -277.5140874572511,
        "RAAN(deg)": 304.9993775191787,
        "Satellite Name": "Constellation 1 1347",
        "Satellite Number": 1347,
        "Semi-Major Axis(m)": 7083131.272910544,
        "Time(s)": 11
    },
    {
        "Altitude(m)": 707199.2286810668,
        "Argument of Periapsis(deg)": 0.0007193760749448675,
        "Eccentricity": 0.0,
        "Inclination(deg)": 45.0,
        "Latitude(deg)": 44.67121530362145,
        "Longitude(deg)": -75.51190681976293,
        "Mean Anomaly(deg)": -277.4533863170012,
        "RAAN(deg)": 304.9993209300132,
        "Satellite Name": "Constellation 1 1347",
        "Satellite Number": 1347,
        "Semi-Major Axis(m)": 7083131.272910544,
        "Time(s)": 12
    },
    {
        "Altitude(m)": 707200.9984538021,
        "Argument of Periapsis(deg)": 0.000779324081190273,
        "Eccentricity": 0.0,
        "Inclination(deg)": 45.0,
        "Latitude(deg)": 44.67901654986396,
        "Longitude(deg)": -75.4315363983641,
        "Mean Anomaly(deg)": -277.3926851767513,
        "RAAN(deg)": 304.9992643408476,
        "Satellite Name": "Constellation 1 1347",
        "Satellite Number": 1347,
        "Semi-Major Axis(m)": 7083131.272910544,
        "Time(s)": 13
    },
    {
        "Altitude(m)": 707202.7542178666,
        "Argument of Periapsis(deg)": 0.0008392720874356787,
        "Eccentricity": 0.0,
        "Inclination(deg)": 45.0,
        "Latitude(deg)": 44.68675530650596,
        "Longitude(deg)": -75.35114340926742,
        "Mean Anomaly(deg)": -277.3319840365014,
        "RAAN(deg)": 304.999207751682,
        "Satellite Name": "Constellation 1 1347",
        "Satellite Number": 1347,
        "Semi-Major Axis(m)": 7083131.272910544,
        "Time(s)": 14
    },
    {
        "Altitude(m)": 707204.4959630019,
        "Argument of Periapsis(deg)": 0.0008992200936810842,
        "Eccentricity": 0.0,
        "Inclination(deg)": 45.0,
        "Latitude(deg)": 44.694431540340894,
        "Longitude(deg)": -75.2707281900889,
        "Mean Anomaly(deg)": -277.27128289625153,
        "RAAN(deg)": 304.99915116251645,
        "Satellite Name": "Constellation 1 1347",
        "Satellite Number": 1347,
        "Semi-Major Axis(m)": 7083131.272910544,
        "Time(s)": 15
    },
    {
        "Altitude(m)": 707206.2236790397,
        "Argument of Periapsis(deg)": 0.0009591680999264898,
        "Eccentricity": 0.0,
        "Inclination(deg)": 45.0,
        "Latitude(deg)": 44.702045218408614,
        "Longitude(deg)": -75.19029057453383,
        "Mean Anomaly(deg)": -277.2105817560016,
        "RAAN(deg)": 304.9990945733509,
        "Satellite Name": "Constellation 1 1347",
        "Satellite Number": 1347,
        "Semi-Major Axis(m)": 7083131.272910544,
        "Time(s)": 16
    },
    {
        "Altitude(m)": 707207.9373558825,
        "Argument of Periapsis(deg)": 0.0010191161061718953,
        "Eccentricity": 0.0,
        "Inclination(deg)": 45.0,
        "Latitude(deg)": 44.70959630799581,
        "Longitude(deg)": -75.10983090097604,
        "Mean Anomaly(deg)": -277.1498806157517,
        "RAAN(deg)": 304.99903798418535,
        "Satellite Name": "Constellation 1 1347",
        "Satellite Number": 1347,
        "Semi-Major Axis(m)": 7083131.272910544,
        "Time(s)": 17
    },
    {
        "Altitude(m)": 707209.6369835347,
        "Argument of Periapsis(deg)": 0.001079064112417301,
        "Eccentricity": 0.0,
        "Inclination(deg)": 45.0,
        "Latitude(deg)": 44.717084776637016,
        "Longitude(deg)": -75.02934934006615,
        "Mean Anomaly(deg)": -277.0891794755018,
        "RAAN(deg)": 304.99898139501977,
        "Satellite Name": "Constellation 1 1347",
        "Satellite Number": 1347,
        "Semi-Major Axis(m)": 7083131.272910544,
        "Time(s)": 18
    }
]